0 DELTA 1 R/B(2) *
1 02971U 67094C   13282.46412898  .00008801  00000-0  40106-2 0  6574
2 02971 028.1971 090.3154 6717855 111.5881 346.2333 02.98981088416643
0 DELTA 1 R/B(2) *
1 02971U 67094C   13282.98847582  .00008500  00000-0  38757-2 0  6589
2 02971 028.1984 090.0473 6717762 112.0243 190.5872 02.98991341416655
0 DELTA 1 R/B(2) *
1 02971U 67094C   13283.45116833  .00013355  00000-0  58152-2 0  6596
2 02971 028.1893 089.8286 6719355 112.3860 328.6404 02.98989778416678
0 DELTA 1 R/B(2) *
1 02971U 67094C   13284.46947333  .00009042  00000-0  41508-2 0  6590
2 02971 028.2019 089.2874 6717637 113.2583 344.7208 02.99020283416702
0 DELTA 1 R/B(2) *
1 02971U 67094C   13285.47320161  .00008449  00000-0  39216-2 0  6601
2 02971 028.2049 088.7707 6717521 114.0991 345.1938 02.99041415416736
0 DELTA 1 R/B(2) *
1 02971U 67094C   13286.47663608  .00008452  00000-0  39524-2 0  6615
2 02971 028.2059 088.2595 6717576 114.9315 345.4386 02.99057446416760
0 DELTA 1 R/B(2) *
1 02971U 67094C   13287.48058610  .00008674  00000-0  40823-2 0  6629
2 02971 028.2079 087.7457 6717531 115.7695 346.2901 02.99079364416792
0 DELTA 1 R/B(2) *
1 02971U 67094C   13288.48425440  .00009465  00000-0  44553-2 0  6633
2 02971 028.2099 087.2322 6717434 116.6084 346.9108 02.99105874416820
0 DELTA 1 R/B(2) *
1 02971U 67094C   13288.83401616  .00008741  00000-0  41304-2 0  6649
2 02971 028.2106 087.0529 6717402 116.8980 003.5065 02.99114800416836
0 DELTA 1 R/B(2) *
1 02971U 67094C   13289.48698532  .00008041  00000-0  38193-2 0  6652
2 02971 028.2119 086.7187 6717291 117.4405 346.6104 02.99130643416851
0 DELTA 1 R/B(2) *
1 02971U 67094C   13289.95302025  .00008342  00000-0  39723-2 0  6668
2 02971 028.2148 086.4750 6717081 117.8353 128.4455 02.99138465416865
0 DELTA 1 R/B(2) *
1 02971U 67094C   13291.49316595  .00008283  00000-0  39164-2 0  6671
2 02971 028.2185 085.6858 6716868 119.1178 347.0437 02.99169081416911
0 DELTA 1 R/B(2) *
1 02971U 67094C   13292.49623963  .00008523  00000-0  39832-2 0  6682
2 02971 028.2186 085.1798 6716807 119.9445 347.3594 02.99189714416943
0 DELTA 1 R/B(2) *
1 02971U 67094C   13293.49921458  .00008897  00000-0  41273-2 0  6690
2 02971 028.2209 084.6663 6716592 120.7797 347.6397 02.99210403416972
0 DELTA 1 R/B(2) *
1 02971U 67094C   13294.50214545  .00008331  00000-0  38370-2 0  6704
2 02971 028.2229 084.1534 6716468 121.6170 347.9372 02.99232732417003
0 DELTA 1 R/B(2) *
1 02971U 67094C   13295.50509697  .00008537  00000-0  39095-2 0  6714
2 02971 028.2248 083.6419 6716319 122.4492 348.3433 02.99251605417037
